IRIDIUM 155             
1 43573U 18061E   22014.52804997  .00000129  00000+0  39143-4 0  9996
2 43573  86.3967  11.4730 0001810  97.4855 262.6547 14.34217006181928
IRIDIUM 154             
1 43574U 18061F   22014.50901249  .00000127  00000+0  38460-4 0  9992
2 43574  86.3971  11.5373 0002264  82.7925 277.3528 14.34216166181970
IRIDIUM 163             
1 43575U 18061G   22014.69929501  .00000129  00000+0  39056-4 0  9998
2 43575  86.3968  11.4224 0002582  93.2314 266.9177 14.34218578181976
IRIDIUM 156             
1 43576U 18061H   22014.39485657  .00000130  00000+0  39350-4 0  9994
2 43576  86.3969  11.5550 0002235  98.2057 261.9392 14.34215962181928
IRIDIUM 164             
1 43577U 18061J   22014.51535661  .00000131  00000+0  39609-4 0  9998
2 43577  86.3970  11.5203 0002359  85.8230 274.3236 14.34219145181986
IRIDIUM 159             
1 43578U 18061K   22014.55340763  .00000128  00000+0  38632-4 0  9991
2 43578  86.3968  11.4751 0002258  85.2530 274.8924 14.34219434181953
IRIDIUM 180             
1 43922U 19002A   22014.83199650  .00000269  00000+0  88843-4 0  9993
2 43922  86.3982 308.2305 0002823  74.1861 285.9646 14.34218657157645
IRIDIUM 176             
1 43923U 19002B   22014.51803774  .00000091  00000+0  10475-4 0  9997
2 43923  86.6116 308.3965 0002190  82.8070 277.3396 14.72241425161683
IRIDIUM 168             
1 43924U 19002C   22014.54657623  .00000046  00000+0  92961-5 0  9992
2 43924  86.3984 308.3815 0002264  77.9290 282.2159 14.34218310157546
IRIDIUM 173             
1 43925U 19002D   22014.53389406  .00000113  00000+0  33343-4 0  9996
2 43925  86.3980 308.3414 0002253  81.2265 278.9185 14.34215958157520
IRIDIUM 169             
1 43926U 19002E   22014.44541529  .00000130  00000+0  36101-4 0  9997
2 43926  86.4240 339.9792 0002649 252.5297 107.5611 14.38601226158070
IRIDIUM 172             
1 43927U 19002F   22014.52754011  .00000116  00000+0  34345-4 0  9991
2 43927  86.3981 308.3470 0002316  79.6979 280.4478 14.34219024157530
IRIDIUM 175             
1 43928U 19002G   22014.78374173  .00000340  00000+0  49967-4 0  9992
2 43928  86.6117 308.1113 0002652  83.2710 276.8809 14.72245257161715
IRIDIUM 171             
1 43929U 19002H   22014.78757265  .00000110  00000+0  32266-4 0  9999
2 43929  86.3984 308.3661 0002158  81.8084 278.3357 14.34214581157561
IRIDIUM 170             
1 43930U 19002J   22014.52422644  .00000149  00000+0  19649-4 0  9995
2 43930  86.6116 308.3996 0002389  82.7823 277.3665 14.72242687161691
IRIDIUM 167             
1 43931U 19002K   22014.57194280  .00000114  00000+0  33476-4 0  9999
2 43931  86.3983 308.3360 0002586  77.8680 282.2806 14.34225845157536
